*******************************************************************************
JPL/HORIZONS              4056 Timwarner (1985 FZ1)        2023-Sep-04 11:27:03
Rec #:    4056 (+COV) Soln.date: 2023-Aug-23_15:45:11   # obs: 4765 (1942-2023)
 
IAU76/J2000 helio. ecliptic osc. elements (au, days, deg., period=Julian yrs):
 
  EPOCH=  2457982.5 ! 2017-Aug-17.00 (TDB)         Residual RMS= .25122
   EC= .1062637296099624   QR= 2.365129342424167   TP= 2458560.9308404913
   OM= 142.383257301109    W=  354.3731073496074   IN= 13.17665660888489
   A= 2.646339217487498    MA= 227.5697359517289   ADIST= 2.927549092550829
   PER= 4.30503            N= .228947447           ANGMOM= .027825196
   DAN= 2.36622            DDN= 2.92587            L= 136.9035965
   B= -1.2807196           MOID= 1.37811995        TP= 2019-Mar-18.4308404913
 
Asteroid physical parameters (km, seconds, rotational period in hours):
   GM= n.a.                RAD= 3.8095             ROTPER= 2.71173
   H= 12.78                G= .150                 B-V= n.a.
                           ALBEDO= .205            STYP= n.a.

ASTEROID comments: 
1: soln ref.= JPL#51, OCC=0
2: source=ORB
*******************************************************************************


*******************************************************************************
Ephemeris / API_USER Mon Sep  4 11:27:03 2023 Pasadena, USA      / Horizons
*******************************************************************************
Target body name: 4056 Timwarner (1985 FZ1)       {source: JPL#51}
Center body name: Solar System Barycenter (0)     {source: DE441}
Center-site name: BODY CENTER
*******************************************************************************
Start time      : A.D. 2023-Aug-12 00:00:00.0000 TDB
Stop  time      : A.D. 2023-Aug-13 00:00:00.0000 TDB
Step-size       : 2880 minutes
*******************************************************************************
Center geodetic : 0.0, 0.0, 0.0                   {E-lon(deg),Lat(deg),Alt(km)}
Center cylindric: 0.0, 0.0, 0.0                   {E-lon(deg),Dxy(km),Dz(km)}
Center radii    : (undefined)
Small perturbers: Yes                             {source: SB441-N16}
Output units    : KM-S
Calendar mode   : Mixed Julian/Gregorian
Output type     : GEOMETRIC cartesian states
Output format   : 2 (position and velocity)
Reference frame : Ecliptic of J2000.0
*******************************************************************************
Initial IAU76/J2000 heliocentric ecliptic osculating elements (au, days, deg.):
  EPOCH=  2457982.5 ! 2017-Aug-17.00 (TDB)         Residual RMS= .25122        
   EC= .1062637296099624   QR= 2.365129342424167   TP= 2458560.9308404913      
   OM= 142.383257301109    W=  354.3731073496074   IN= 13.17665660888489       
  Equivalent ICRF heliocentric cartesian coordinates (au, au/d):
   X= 2.818691706336788E+00  Y=-6.431829208844930E-02  Z=-4.211178350749285E-01
  VX=-1.763717743775029E-04 VY= 9.531678469330632E-03 VZ= 2.214299247000501E-03
Asteroid physical parameters (km, seconds, rotational period in hours):        
   GM= n.a.                RAD= 3.8095             ROTPER= 2.71173             
   H= 12.78                G= .150                 B-V= n.a.                   
                           ALBEDO= .205            STYP= n.a.                  
*******************************************************************************
JDTDB
   X     Y     Z
   VX    VY    VZ
*******************************************************************************
$$SOE
2460168.500000000 = A.D. 2023-Aug-12 00:00:00.0000 TDB 
 X =-2.943836925446337E+08 Y = 1.983637054459632E+08 Z = 5.173958364152208E+06
 VX=-1.125661207359685E+01 VY=-1.631993931094048E+01 VZ= 4.635551176981609E+00
$$EOE
*******************************************************************************
 
TIME

  Barycentric Dynamical Time ("TDB" or T_eph) output was requested. This
continuous coordinate time is equivalent to the relativistic proper time
of a clock at rest in a reference frame co-moving with the solar system
barycenter but outside the system's gravity well. It is the independent
variable in the solar system relativistic equations of motion.

  TDB runs at a uniform rate of one SI second per second and is independent
of irregularities in Earth's rotation.
 
CALENDAR SYSTEM

  Mixed calendar mode was active such that calendar dates after AD 1582-Oct-15
(if any) are in the modern Gregorian system. Dates prior to 1582-Oct-5 (if any)
are in the Julian calendar system, which is automatically extended for dates
prior to its adoption on 45-Jan-1 BC.  The Julian calendar is useful for
matching historical dates. The Gregorian calendar more accurately corresponds
to the Earth's orbital motion and seasons. A "Gregorian-only" calendar mode is
available if such physical events are the primary interest.

REFERENCE FRAME AND COORDINATES

  Ecliptic at the standard reference epoch

    Reference epoch: J2000.0
    X-Y plane: adopted Earth orbital plane at the reference epoch
               Note: IAU76 obliquity of 84381.448 arcseconds wrt ICRF X-Y plane
    X-axis   : ICRF
    Z-axis   : perpendicular to the X-Y plane in the directional (+ or -) sense
               of Earth's north pole at the reference epoch.

  Symbol meaning:

    JDTDB    Julian Day Number, Barycentric Dynamical Time
      X      X-component of position vector (km)
      Y      Y-component of position vector (km)
      Z      Z-component of position vector (km)
      VX     X-component of velocity vector (km/sec)                           
      VY     Y-component of velocity vector (km/sec)                           
      VZ     Z-component of velocity vector (km/sec)                           

ABERRATIONS AND CORRECTIONS

 Geometric state vectors have NO corrections or aberrations applied.

Computations by ...

    Solar System Dynamics Group, Horizons On-Line Ephemeris System
    4800 Oak Grove Drive, Jet Propulsion Laboratory
    Pasadena, CA  91109   USA

    General site: https://ssd.jpl.nasa.gov/
    Mailing list: https://ssd.jpl.nasa.gov/email_list.html
    System news : https://ssd.jpl.nasa.gov/horizons/news.html
    User Guide  : https://ssd.jpl.nasa.gov/horizons/manual.html
    Connect     : browser        https://ssd.jpl.nasa.gov/horizons/app.html#/x
                  API            https://ssd-api.jpl.nasa.gov/doc/horizons.html
                  command-line   telnet ssd.jpl.nasa.gov 6775
                  e-mail/batch   https://ssd.jpl.nasa.gov/ftp/ssd/hrzn_batch.txt
                  scripts        https://ssd.jpl.nasa.gov/ftp/ssd/SCRIPTS
    Author      : Jon.D.Giorgini@jpl.nasa.gov
*******************************************************************************
